{
  "links" : {
    "next" : "https://api.nasa.gov/neo/rest/v1/feed?start_date=2009-06-09&end_date=2009-06-09&detailed=true&api_key=t0TVs3DtDT2H8Oy2Zy8m2eVrNsAVKAexjcZXUckd",
    "prev" : "https://api.nasa.gov/neo/rest/v1/feed?start_date=2009-06-07&end_date=2009-06-07&detailed=true&api_key=t0TVs3DtDT2H8Oy2Zy8m2eVrNsAVKAexjcZXUckd",
    "self" : "https://api.nasa.gov/neo/rest/v1/feed?start_date=2009-06-08&end_date=2009-06-08&detailed=true&api_key=t0TVs3DtDT2H8Oy2Zy8m2eVrNsAVKAexjcZXUckd"
  },
  "element_count" : 5,
  "near_earth_objects" : {
    "2009-06-08" : [ {
      "links" : {
        "self" : "https://api.nasa.gov/neo/rest/v1/neo/3013655?api_key=t0TVs3DtDT2H8Oy2Zy8m2eVrNsAVKAexjcZXUckd"
      },
      "neo_reference_id" : "3013655",
      "name" : "(1998 MR24)",
      "nasa_jpl_url" : "http://ssd.jpl.nasa.gov/sbdb.cgi?sstr=3013655",
      "absolute_magnitude_h" : 19.2,
      "estimated_diameter" : {
        "kilometers" : {
          "estimated_diameter_min" : 0.3841978911,
          "estimated_diameter_max" : 0.8590926012
        },
        "meters" : {
          "estimated_diameter_min" : 384.1978910643,
          "estimated_diameter_max" : 859.0926012318
        },
        "miles" : {
          "estimated_diameter_min" : 0.2387294278,
          "estimated_diameter_max" : 0.5338152287
        },
        "feet" : {
          "estimated_diameter_min" : 1260.4918089193,
          "estimated_diameter_max" : 2818.5453698252
        }
      },
      "is_potentially_hazardous_asteroid" : false,
      "close_approach_data" : [ {
        "close_approach_date" : "2009-06-08",
        "epoch_date_close_approach" : 1244444400000,
        "relative_velocity" : {
          "kilometers_per_second" : "15.6089013543",
          "kilometers_per_hour" : "56192.0448755192",
          "miles_per_hour" : "34915.5514394581"
        },
        "miss_distance" : {
          "astronomical" : "0.3780219419",
          "lunar" : "147.0505371094",
          "kilometers" : "56551280",
          "miles" : "35139336"
        },
        "orbiting_body" : "Earth"
      } ],
      "orbital_data" : {
        "orbit_id" : "24",
        "orbit_determination_date" : "2017-04-06 09:17:47",
        "orbit_uncertainty" : "0",
        "minimum_orbit_intersection" : ".107362",
        "jupiter_tisserand_invariant" : "3.750",
        "epoch_osculation" : "2458000.5",
        "eccentricity" : ".4456681818419869",
        "semi_major_axis" : "1.957701998250906",
        "inclination" : "6.069897960297864",
        "ascending_node_longitude" : "245.03752071",
        "orbital_period" : "1000.502787683941",
        "perihelion_distance" : "1.085216508102",
        "perihelion_argument" : "54.81544289900344",
        "aphelion_distance" : "2.830187488399812",
        "perihelion_time" : "2458014.788870722279",
        "mean_anomaly" : "354.8585915768128",
        "mean_motion" : ".3598190873944112",
        "equinox" : "J2000"
      }
    }, {
      "links" : {
        "self" : "https://api.nasa.gov/neo/rest/v1/neo/3364161?api_key=t0TVs3DtDT2H8Oy2Zy8m2eVrNsAVKAexjcZXUckd"
      },
      "neo_reference_id" : "3364161",
      "name" : "(2006 YV1)",
      "nasa_jpl_url" : "http://ssd.jpl.nasa.gov/sbdb.cgi?sstr=3364161",
      "absolute_magnitude_h" : 21.6,
      "estimated_diameter" : {
        "kilometers" : {
          "estimated_diameter_min" : 0.1272198785,
          "estimated_diameter_max" : 0.2844722965
        },
        "meters" : {
          "estimated_diameter_min" : 127.2198785394,
          "estimated_diameter_max" : 284.4722965033
        },
        "miles" : {
          "estimated_diameter_min" : 0.0790507431,
          "estimated_diameter_max" : 0.1767628354
        },
        "feet" : {
          "estimated_diameter_min" : 417.3880663071,
          "estimated_diameter_max" : 933.3080892598
        }
      },
      "is_potentially_hazardous_asteroid" : false,
      "close_approach_data" : [ {
        "close_approach_date" : "2009-06-08",
        "epoch_date_close_approach" : 1244444400000,
        "relative_velocity" : {
          "kilometers_per_second" : "16.2273122399",
          "kilometers_per_hour" : "58418.3240634787",
          "miles_per_hour" : "36298.8747493321"
        },
        "miss_distance" : {
          "astronomical" : "0.1117209495",
          "lunar" : "43.4594497681",
          "kilometers" : "16713216",
          "miles" : "10385111"
        },
        "orbiting_body" : "Earth"
      } ],
      "orbital_data" : {
        "orbit_id" : "14",
        "orbit_determination_date" : "2017-04-06 09:07:17",
        "orbit_uncertainty" : "8",
        "minimum_orbit_intersection" : ".0573446",
        "jupiter_tisserand_invariant" : "5.022",
        "epoch_osculation" : "2454094.5",
        "eccentricity" : ".4425685914832928",
        "semi_major_axis" : "1.255549296755102",
        "inclination" : "4.967256748220445",
        "ascending_node_longitude" : "303.0746308636347",
        "orbital_period" : "513.8650499599298",
        "perihelion_distance" : ".6998826129523574",
        "perihelion_argument" : "49.49972651774763",
        "aphelion_distance" : "1.811215980557846",
        "perihelion_time" : "2454021.371714830019",
        "mean_anomaly" : "51.23170502303284",
        "mean_motion" : ".7005730396104426",
        "equinox" : "J2000"
      }
    }, {
      "links" : {
        "self" : "https://api.nasa.gov/neo/rest/v1/neo/3566699?api_key=t0TVs3DtDT2H8Oy2Zy8m2eVrNsAVKAexjcZXUckd"
      },
      "neo_reference_id" : "3566699",
      "name" : "(2011 KY15)",
      "nasa_jpl_url" : "http://ssd.jpl.nasa.gov/sbdb.cgi?sstr=3566699",
      "absolute_magnitude_h" : 24.1,
      "estimated_diameter" : {
        "kilometers" : {
          "estimated_diameter_min" : 0.040230458,
          "estimated_diameter_max" : 0.0899580388
        },
        "meters" : {
          "estimated_diameter_min" : 40.2304579834,
          "estimated_diameter_max" : 89.9580388169
        },
        "miles" : {
          "estimated_diameter_min" : 0.0249980399,
          "estimated_diameter_max" : 0.0558973165
        },
        "feet" : {
          "estimated_diameter_min" : 131.9896957704,
          "estimated_diameter_max" : 295.1379320721
        }
      },
      "is_potentially_hazardous_asteroid" : false,
      "close_approach_data" : [ {
        "close_approach_date" : "2009-06-08",
        "epoch_date_close_approach" : 1244444400000,
        "relative_velocity" : {
          "kilometers_per_second" : "22.1019282455",
          "kilometers_per_hour" : "79566.9416839062",
          "miles_per_hour" : "49439.8032924249"
        },
        "miss_distance" : {
          "astronomical" : "0.3084646172",
          "lunar" : "119.9927368164",
          "kilometers" : "46145652",
          "miles" : "28673578"
        },
        "orbiting_body" : "Earth"
      } ],
      "orbital_data" : {
        "orbit_id" : "9",
        "orbit_determination_date" : "2017-04-06 08:53:24",
        "orbit_uncertainty" : "8",
        "minimum_orbit_intersection" : ".0167161",
        "jupiter_tisserand_invariant" : "8.560",
        "epoch_osculation" : "2455710.5",
        "eccentricity" : ".6028069931029314",
        "semi_major_axis" : ".6487412764177625",
        "inclination" : "16.86324974114843",
        "ascending_node_longitude" : "242.9532515031493",
        "orbital_period" : "190.8559585881112",
        "perihelion_distance" : ".2576754982786134",
        "perihelion_argument" : "185.7754515858898",
        "aphelion_distance" : "1.039807054556912",
        "perihelion_time" : "2455620.036290517714",
        "mean_anomaly" : "170.6361994382691",
        "mean_motion" : "1.886239249029269",
        "equinox" : "J2000"
      }
    } ]
  }
}